      2.10          N: GNSS NAV DATA                        RINEX VERSION / TYPE
fic2rin                                 08/29/2019 00:19:46 PGM / RUN BY / DATE
                                                            END OF HEADER
 2 19  8 28  1 59 44.0-2.924334257841e-04-8.299139153678e-12 0.000000000000e+00
    1.400000000000e+01-9.318750000000e+01 4.731268504896e-09 1.567358486864e+00
   -5.161389708519e-06 1.900491933338e-02 1.143664121628e-06 5.153777044296e+03
    2.663840000000e+05-5.401670932770e-08 1.604866928144e+00-4.377216100693e-07
    9.555364781355e-01 3.561562500000e+02-1.719680412392e+00-8.595715188897e-09
   -1.507205638307e-10 1.000000000000e+00 2.068000000000e+03 0.000000000000e+00
    2.400000000000e+00 0.000000000000e+00-2.048909664154e-08 1.400000000000e+01
    2.607000000000e+05 4.000000000000e+00
31 19  8 28  1 59 44.0 1.436891034245e-05-2.614797267597e-12 0.000000000000e+00
    7.000000000000e+00-2.121875000000e+01 5.006279960227e-09 3.887604234664e-01
   -1.151114702225e-06 9.290734888054e-03 6.314367055893e-06 5.153672988892e+03
    2.663840000000e+05 7.823109626770e-08-1.443792379839e+00 5.215406417847e-08
    9.589321904148e-01 2.538125000000e+02 2.027757332804e-02-8.320703733566e-09
   -5.943104697023e-10 1.000000000000e+00 2.068000000000e+03 0.000000000000e+00
    2.400000000000e+00 0.000000000000e+00-1.350417733192e-08 7.000000000000e+00
    2.626800000000e+05 4.000000000000e+00
25 19  8 28  1 59 44.0-9.584240615368e-06-1.818989403546e-12 0.000000000000e+00
    1.100000000000e+01 5.690625000000e+01 4.163030549790e-09-3.782014084639e-01
    2.976506948471e-06 8.384147542529e-03 1.184642314911e-05 5.153674106598e+03
    2.663840000000e+05-3.725290298462e-09-4.219215564407e-01 1.192092895508e-07
    9.693235330616e-01 1.545625000000e+02 9.007220758556e-01-7.904614973228e-09
   -4.182317067436e-10 1.000000000000e+00 2.068000000000e+03 0.000000000000e+00
    2.400000000000e+00 0.000000000000e+00 5.587935447693e-09 1.100000000000e+01
    2.649000000000e+05 4.000000000000e+00
 2 19  8 28  3 59 44.0-2.924930304289e-04-8.299139153678e-12 0.000000000000e+00
    1.500000000000e+01-1.048437500000e+02 4.652336645638e-09 2.617502333616e+00
   -5.338340997696e-06 1.900596031919e-02 7.711350917816e-07 5.153775312424e+03
    2.735840000000e+05 1.899898052216e-07 1.604807532207e+00-5.587935447693e-08
    9.555366492969e-01 3.581875000000e+02-1.719706298727e+00-8.207484731826e-09
   -2.585821995580e-10 1.000000000000e+00 2.068000000000e+03 0.000000000000e+00
    2.400000000000e+00 0.000000000000e+00-2.048909664154e-08 1.500000000000e+01
    2.664000000000e+05 4.000000000000e+00
25 19  8 28  3 59 44.0-9.597279131413e-06-1.818989403546e-12 0.000000000000e+00
    1.200000000000e+01 6.256250000000e+01 4.115171413407e-09 6.718641355980e-01
    3.386288881302e-06 8.385802968405e-03 1.261755824089e-05 5.153677503586e+03
    2.735840000000e+05-9.685754776001e-08-4.219779958202e-01 8.940696716309e-08
    9.693204228978e-01 1.394687500000e+02 9.008341543984e-01-7.867827726606e-09
   -4.846630453041e-10 1.000000000000e+00 2.068000000000e+03 0.000000000000e+00
    2.400000000000e+00 0.000000000000e+00 5.587935447693e-09 1.200000000000e+01
    2.664000000000e+05 4.000000000000e+00
31 19  8 28  3 59 44.0 1.435028389096e-05-2.614797267597e-12 0.000000000000e+00
    8.000000000000e+00-2.728125000000e+01 5.106284125801e-09 1.439028211564e+00
   -1.136213541031e-06 9.290201589465e-03 6.282702088356e-06 5.153671216965e+03
    2.735840000000e+05 5.587935447693e-08-1.443852093229e+00 8.940696716309e-08
    9.589278982131e-01 2.564375000000e+02 2.019542608913e-02-8.299988584983e-09
   -6.064538326650e-10 1.000000000000e+00 2.068000000000e+03 0.000000000000e+00
    2.400000000000e+00 0.000000000000e+00-1.350417733192e-08 8.000000000000e+00
    2.664000000000e+05 4.000000000000e+00
 1 19  8 28  4  0  0.0-1.102215610445e-04-1.193711796077e-11 0.000000000000e+00
    7.200000000000e+01-1.002500000000e+02 4.211604001640e-09 2.368430834399e+00
   -5.315989255905e-06 9.113267064095e-03 2.868473529816e-06 5.153648731232e+03
    2.736000000000e+05-8.381903171539e-08 1.675480522375e+00-1.527369022369e-07
    9.764554547291e-01 3.330625000000e+02 7.571258715030e-01-8.162840015051e-09
   -2.239378993409e-10 1.000000000000e+00 2.068000000000e+03 0.000000000000e+00
    2.400000000000e+00 0.000000000000e+00 5.587935447693e-09 7.200000000000e+01
    2.664000000000e+05 4.000000000000e+00
 5 19  8 28  4  0  0.0-9.424984455109e-07-3.410605131648e-13 0.000000000000e+00
    1.100000000000e+01-1.074062500000e+02 4.343395205559e-09-9.997643962001e-01
   -5.364418029785e-06 5.879031959921e-03 1.174584031105e-05 5.153762102127e+03
    2.736000000000e+05 1.154839992523e-07 2.689503845042e+00 8.568167686462e-08
    9.508266821364e-01 1.424687500000e+02 7.676727837842e-01-7.931044645558e-09
    2.346526313668e-10 1.000000000000e+00 2.068000000000e+03 0.000000000000e+00
    2.400000000000e+00 0.000000000000e+00-1.117587089539e-08 1.100000000000e+01
    2.664000000000e+05 4.000000000000e+00
 6 19  8 28  4  0  0.0-3.874907270074e-05-1.205080479849e-11 0.000000000000e+00
    8.000000000000e+00-1.073750000000e+02 4.239462304908e-09 2.666949400645e+00
   -5.386769771576e-06 1.373834325932e-03 2.603977918625e-06 5.153647106171e+03
    2.736000000000e+05-5.029141902924e-08 1.667201659767e+00 3.166496753693e-08
    9.760817347507e-01 3.373437500000e+02-1.113322635294e+00-8.237843139233e-09
   -2.707255625206e-10 1.000000000000e+00 2.068000000000e+03 0.000000000000e+00
    2.400000000000e+00 0.000000000000e+00 4.190951585770e-09 8.000000000000e+00
    2.664000000000e+05 4.000000000000e+00
 3 19  8 28  4  0  0.0-5.332287400961e-06-3.524291969370e-12 0.000000000000e+00
    5.400000000000e+01-8.309375000000e+01 4.083384375064e-09 1.292819689026e+00
   -4.502013325691e-06 2.487730234861e-03 1.201033592224e-05 5.153730270386e+03
    2.736000000000e+05-4.656612873077e-08 2.717611579133e+00-3.352761268616e-08
    9.639635987131e-01 1.475312500000e+02 7.109139731977e-01-7.773895242512e-09
    1.853648640478e-10 1.000000000000e+00 2.068000000000e+03 0.000000000000e+00
    2.400000000000e+00 0.000000000000e+00 1.862645149231e-09 5.400000000000e+01
    2.664000000000e+05 4.000000000000e+00
 7 19  8 28  4  0  0.0-9.426102042198e-05-7.844391802792e-12 0.000000000000e+00
    4.700000000000e+01-1.968750000000e+01 5.190216193337e-09 1.739324970827e+00
   -1.020729541779e-06 1.315471925773e-02 6.975606083870e-06 5.153727977753e+03
    2.736000000000e+05-3.222376108170e-07-1.458293814237e+00 8.940696716309e-08
    9.544065684873e-01 2.471562500000e+02-2.434935546713e+00-8.319632260364e-09
   -4.882346226460e-10 1.000000000000e+00 2.068000000000e+03 0.000000000000e+00
    2.400000000000e+00 0.000000000000e+00-1.117587089539e-08 4.700000000000e+01
    2.664000000000e+05 4.000000000000e+00
10 19  8 28  4  0  0.0-3.090500831604e-05-1.466560206609e-11 0.000000000000e+00
    4.200000000000e+01-9.440625000000e+01 4.106242470052e-09 3.735614638773e-01
   -4.891306161880e-06 4.755089757964e-03 1.150183379650e-05 5.153672660828e+03
    2.736000000000e+05 8.195638656616e-08 2.714425260170e+00 9.313225746155e-08
    9.639629038271e-01 1.619375000000e+02-2.727799211901e+00-7.817468486084e-09
    2.078658013021e-10 1.000000000000e+00 2.068000000000e+03 0.000000000000e+00
    2.400000000000e+00 0.000000000000e+00 1.862645149231e-09 4.200000000000e+01
    2.664000000000e+05 4.000000000000e+00
 8 19  8 28  4  0  0.0-4.354398697615e-06-1.477928890381e-12 0.000000000000e+00
    9.400000000000e+01 1.119062500000e+02 4.329823211659e-09-1.569591116364e+00
    5.915760993958e-06 4.392073606141e-03 3.797933459282e-06 5.153545291901e+03
    2.736000000000e+05-3.352761268616e-08 6.076775047558e-01 1.862645149231e-08
    9.703818650540e-01 3.134687500000e+02-2.289653286850e-01-8.198912946205e-09
    2.742971398626e-10 1.000000000000e+00 2.068000000000e+03 0.000000000000e+00
    2.400000000000e+00 0.000000000000e+00 5.122274160385e-09 9.400000000000e+01
    2.664000000000e+05 4.000000000000e+00
 4 19  8 28  4  0  0.0 1.500477083027e-04 5.047695594840e-11 0.000000000000e+00
    8.600000000000e+01 1.166562500000e+02 4.410183701853e-09-1.610200553373e+00
    6.128102540970e-06 1.465283869766e-02 4.827976226807e-06 5.153680973053e+03
    2.736000000000e+05 2.104789018631e-07 5.167703138550e-01-1.508742570877e-07
    9.589768167308e-01 2.861562500000e+02 6.773514272058e-01-8.101408884770e-09
    2.971552348511e-10 1.000000000000e+00 2.068000000000e+03 0.000000000000e+00
    2.400000000000e+00 6.300000000000e+01-5.587935447693e-09 8.600000000000e+01
    2.664000000000e+05 4.000000000000e+00
 9 19  8 28  4  0  0.0-1.699943095446e-05-9.208633855451e-12 0.000000000000e+00
    9.900000000000e+01 3.228125000000e+01 5.103069706194e-09-1.291594318122e+00
    1.784414052963e-06 1.319363364018e-03 7.767230272293e-06 5.153601739883e+03
    2.736000000000e+05-1.490116119385e-08-2.534170420724e+00 3.539025783539e-08
    9.526851981339e-01 2.302812500000e+02 1.686233217490e+00-8.210699151434e-09
    6.468126566291e-10 1.000000000000e+00 2.068000000000e+03 0.000000000000e+00
    2.400000000000e+00 0.000000000000e+00 1.396983861923e-09 9.900000000000e+01
    2.664000000000e+05 4.000000000000e+00
22 19  8 28  4  0  0.0-7.487395778298e-04-4.206412995700e-12 0.000000000000e+00
    1.500000000000e+01-9.096875000000e+01 4.842344560231e-09-2.626413738594e+00
   -4.779547452927e-06 6.970167509280e-03 1.126900315285e-05 5.153728919983e+03
    2.736000000000e+05 8.381903171539e-08 2.641189234602e+00 2.980232238770e-08
    9.285323840723e-01 1.388750000000e+02-1.292029095912e+00-8.033191757538e-09
    1.692927660089e-10 1.000000000000e+00 2.068000000000e+03 0.000000000000e+00
    2.400000000000e+00 0.000000000000e+00-1.816079020500e-08 1.500000000000e+01
    2.664000000000e+05 4.000000000000e+00
